QIANFAN-105             
1 66047U 25233Q   25335.47954670  .00000178  00000+0  10761-3 0  9991
2 66047  88.9965  63.3731 0017132  75.4635 284.8444 14.02097869  6418
QIANFAN-106             
1 66048U 25233R   25335.43196225  .00000164  00000+0  10533-3 0  9994
2 66048  88.9962  63.3843 0017828  75.5950 284.7205 13.98275450  6404
QIANFAN-107             
1 66049U 25233S   25335.48338382  .00000176  00000+0  10885-3 0  9995
2 66049  88.9967  63.3735 0017513  75.5223 284.7897 14.00747765  6419
QIANFAN-108             
1 66050U 25233T   25335.20592419  .00000208  00000+0  13231-3 0  9994
2 66050  88.9935  63.4120 0017572  80.4824 279.8339 13.99708766  6378
