<?xml version="1.0" encoding="UTF-8"?>
<ndm xmlns:xsi="http://www.w3.org/2001/XMLSchema-instance" xsi:noNamespaceSchemaLocation="https://sanaregistry.org/r/ndmxml_unqualified/ndmxml-2.0.0-master-2.0.xsd">
<omm id="CCSDS_OMM_VERS" version="2.0">
<header><CREATION_DATE/><ORIGINATOR/></header><body><segment><metadata><OBJECT_NAME>QIANFAN-105</OBJECT_NAME><OBJECT_ID>2025-233Q</OBJECT_ID><CENTER_NAME>EARTH</CENTER_NAME><REF_FRAME>TEME</REF_FRAME><TIME_SYSTEM>UTC</TIME_SYSTEM><MEAN_ELEMENT_THEORY>SGP4</MEAN_ELEMENT_THEORY></metadata><data><meanElements><EPOCH>2025-12-01T11:30:32.834880</EPOCH><MEAN_MOTION>14.02097869</MEAN_MOTION><ECCENTRICITY>.0017132</ECCENTRICITY><INCLINATION>88.9965</INCLINATION><RA_OF_ASC_NODE>63.3731</RA_OF_ASC_NODE><ARG_OF_PERICENTER>75.4635</ARG_OF_PERICENTER><MEAN_ANOMALY>284.8444</MEAN_ANOMALY></meanElements><tleParameters><EPHEMERIS_TYPE>0</EPHEMERIS_TYPE><CLASSIFICATION_TYPE>U</CLASSIFICATION_TYPE><NORAD_CAT_ID>66047</NORAD_CAT_ID><ELEMENT_SET_NO>999</ELEMENT_SET_NO><REV_AT_EPOCH>641</REV_AT_EPOCH><BSTAR>.10761E-3</BSTAR><MEAN_MOTION_DOT>.178E-5</MEAN_MOTION_DOT><MEAN_MOTION_DDOT>0</MEAN_MOTION_DDOT></tleParameters></data></segment></body></omm>
<omm id="CCSDS_OMM_VERS" version="2.0">
<header><CREATION_DATE/><ORIGINATOR/></header><body><segment><metadata><OBJECT_NAME>QIANFAN-106</OBJECT_NAME><OBJECT_ID>2025-233R</OBJECT_ID><CENTER_NAME>EARTH</CENTER_NAME><REF_FRAME>TEME</REF_FRAME><TIME_SYSTEM>UTC</TIME_SYSTEM><MEAN_ELEMENT_THEORY>SGP4</MEAN_ELEMENT_THEORY></metadata><data><meanElements><EPOCH>2025-12-01T10:22:01.538400</EPOCH><MEAN_MOTION>13.98275450</MEAN_MOTION><ECCENTRICITY>.0017828</ECCENTRICITY><INCLINATION>88.9962</INCLINATION><RA_OF_ASC_NODE>63.3843</RA_OF_ASC_NODE><ARG_OF_PERICENTER>75.5950</ARG_OF_PERICENTER><MEAN_ANOMALY>284.7205</MEAN_ANOMALY></meanElements><tleParameters><EPHEMERIS_TYPE>0</EPHEMERIS_TYPE><CLASSIFICATION_TYPE>U</CLASSIFICATION_TYPE><NORAD_CAT_ID>66048</NORAD_CAT_ID><ELEMENT_SET_NO>999</ELEMENT_SET_NO><REV_AT_EPOCH>640</REV_AT_EPOCH><BSTAR>.10533E-3</BSTAR><MEAN_MOTION_DOT>.164E-5</MEAN_MOTION_DOT><MEAN_MOTION_DDOT>0</MEAN_MOTION_DDOT></tleParameters></data></segment></body></omm>
<omm id="CCSDS_OMM_VERS" version="2.0">
<header><CREATION_DATE/><ORIGINATOR/></header><body><segment><metadata><OBJECT_NAME>QIANFAN-107</OBJECT_NAME><OBJECT_ID>2025-233S</OBJECT_ID><CENTER_NAME>EARTH</CENTER_NAME><REF_FRAME>TEME</REF_FRAME><TIME_SYSTEM>UTC</TIME_SYSTEM><MEAN_ELEMENT_THEORY>SGP4</MEAN_ELEMENT_THEORY></metadata><data><meanElements><EPOCH>2025-12-01T11:36:04.362048</EPOCH><MEAN_MOTION>14.00747765</MEAN_MOTION><ECCENTRICITY>.0017513</ECCENTRICITY><INCLINATION>88.9967</INCLINATION><RA_OF_ASC_NODE>63.3735</RA_OF_ASC_NODE><ARG_OF_PERICENTER>75.5223</ARG_OF_PERICENTER><MEAN_ANOMALY>284.7897</MEAN_ANOMALY></meanElements><tleParameters><EPHEMERIS_TYPE>0</EPHEMERIS_TYPE><CLASSIFICATION_TYPE>U</CLASSIFICATION_TYPE><NORAD_CAT_ID>66049</NORAD_CAT_ID><ELEMENT_SET_NO>999</ELEMENT_SET_NO><REV_AT_EPOCH>641</REV_AT_EPOCH><BSTAR>.10885E-3</BSTAR><MEAN_MOTION_DOT>.176E-5</MEAN_MOTION_DOT><MEAN_MOTION_DDOT>0</MEAN_MOTION_DDOT></tleParameters></data></segment></body></omm>
<omm id="CCSDS_OMM_VERS" version="2.0">
<header><CREATION_DATE/><ORIGINATOR/></header><body><segment><metadata><OBJECT_NAME>QIANFAN-108</OBJECT_NAME><OBJECT_ID>2025-233T</OBJECT_ID><CENTER_NAME>EARTH</CENTER_NAME><REF_FRAME>TEME</REF_FRAME><TIME_SYSTEM>UTC</TIME_SYSTEM><MEAN_ELEMENT_THEORY>SGP4</MEAN_ELEMENT_THEORY></metadata><data><meanElements><EPOCH>2025-12-01T04:56:31.850016</EPOCH><MEAN_MOTION>13.99708766</MEAN_MOTION><ECCENTRICITY>.0017572</ECCENTRICITY><INCLINATION>88.9935</INCLINATION><RA_OF_ASC_NODE>63.4120</RA_OF_ASC_NODE><ARG_OF_PERICENTER>80.4824</ARG_OF_PERICENTER><MEAN_ANOMALY>279.8339</MEAN_ANOMALY></meanElements><tleParameters><EPHEMERIS_TYPE>0</EPHEMERIS_TYPE><CLASSIFICATION_TYPE>U</CLASSIFICATION_TYPE><NORAD_CAT_ID>66050</NORAD_CAT_ID><ELEMENT_SET_NO>999</ELEMENT_SET_NO><REV_AT_EPOCH>637</REV_AT_EPOCH><BSTAR>.13231E-3</BSTAR><MEAN_MOTION_DOT>.208E-5</MEAN_MOTION_DOT><MEAN_MOTION_DDOT>0</MEAN_MOTION_DDOT></tleParameters></data></segment></body></omm>
</ndm>
